P/2010 TO20 (LINEAR-Grauer),e,2.4792,43.2979,266.7528,5.828881,0.0700368,0.05451942,308.3507,11/12.0/2020,2000,g  9.0,4.0
# From MPC 82316
P/2010 U1 (Boattini),e,8.2142,280.7166,85.8978,6.512152,0.0593085,0.24797290,234.0631,11/12.0/2020,2000,g  9.5,4.0
# From MPC119994
C/2010 U3 (Boattini),e,55.5205,43.0343,88.0721,2452,0.0000081,0.99655600,0.0000,02/25.9319/2019,2000,g  1.0,4.0
# From MPC 79021
P/2010 UH55 (Spacewatch),e,8.0464,232.9954,225.1854,6.650736,0.0574645,0.56353292,201.0808,11/12.0/2020,2000,g 11.0,4.0
# From MPC 75009
P/2010 WK (LINEAR),e,11.4004,11.3147,40.9919,5.760058,0.0712958,0.68976129,263.8536,11/12.0/2020,2000,g 14.5,2.0
# From MPC 82317
P/2011 A2 (Scotti),e,4.4751,54.6758,94.5320,3.105251,0.1801187,0.49941756,290.7115,11/12.0/2020,2000,g 16.5,4.0
# From MPC 84021
P/2011 C2 (Gibbs),e,10.8852,12.1237,161.0170,7.414085,0.0488222,0.26901512,157.9940,11/12.0/2020,2000,g  9.0,4.0
# From MPC 79866
P/2011 FR143 (Lemmon),e,15.9879,190.9505,350.1339,6.856559,0.0548965,0.45104296,194.4185,11/12.0/2020,2000,g 14.0,2.0
# From MPC 82317
P/2011 JB15 (Spacewatch-Boattini),e,19.1464,153.5961,110.9917,7.354093,0.0494209,0.31806891,158.8874,11/12.0/2020,2000,g  9.0,4.0
# From MPEC 2020-U96
C/2011 KP36 (Spacewatch),e,18.9841,173.2994,180.6540,38.87567,0.0040662,0.87448246,6.6252,11/12.0/2020,2000,g  4.5,4.0
# From MPEC 2020-UR0
C/2011 KP36 (Spacewatch),e,18.9841,173.2994,180.6540,38.87567,0.0040662,0.87448246,6.6252,11/12.0/2020,2000,g  4.5,4.0
# From MPC 87913
P/2011 N1 (ASH),e,35.7133,77.6027,330.3395,6.250197,0.0630759,0.54365249,195.4866,11/12.0/2020,2000,g 11.5,4.0
# From MPC 75714
P/2011 NO1 (Elenin),e,15.2489,295.7919,263.8270,5.523289,0.0759289,0.77489020,271.9264,11/12.0/2020,2000,g 15.0,4.0
# From MPC 82318
P/2011 P1 (McNaught),e,5.6578,4.2399,348.8931,7.468842,0.0482863,0.32694949,181.9943,11/12.0/2020,2000,g  9.0,4.0
# From MPC 77806
P/2011 Q3 (McNaught),e,6.0567,32.0248,310.9761,4.970347,0.0889455,0.53254448,302.5854,11/12.0/2020,2000,g 13.5,4.0
# From MPEC 2020-V78
P/2011 R3 (Novichonok-Gerke),e,19.2746,189.5832,225.3968,4.774866,0.0944631,0.27182948,295.1385,11/12.0/2020,2000,g 10.5,4.0
# From MPC 98558
P/2011 S1 (Gibbs),e,2.6839,218.9022,192.5115,8.588233,0.0391605,0.20017756,89.4638,11/12.0/2020,2000,g  8.0,4.0
# From MPC115880
P/2011 U2 (Bressi),e,9.8512,262.9466,157.0783,4.872654,0.0916338,0.13606119,267.1727,11/12.0/2020,2000,g 10.0,4.0
# From MPC 79022
P/2011 UA134 (Spacewatch-PANSTARRS),e,10.4430,40.4216,32.4571,5.603907,0.0742964,0.62930037,244.1227,11/12.0/2020,2000,g 17.5,4.0
# From MPC 77406
P/2011 V1 (Boattini),e,7.3769,46.8482,269.2486,3.854790,0.1302276,0.55061975,100.5177,11/12.0/2020,2000,g 15.5,4.0
# From MPC 82718
P/2011 W1 (PANSTARRS),e,3.7187,161.7905,282.7359,4.660201,0.0979709,0.28707267,315.6458,11/12.0/2020,2000,g 11.5,4.0
# From MPC 79342
P/2011 Y2 (Boattini),e,6.3715,309.3679,131.9323,6.239671,0.0632356,0.70926093,200.6368,11/12.0/2020,2000,g 15.0,4.0
# From MPC 94669
P/2012 B1 (PANSTARRS),e,7.6154,36.2016,162.5832,6.527685,0.0590970,0.40978238,157.8976,11/12.0/2020,2000,g  9.0,4.0
# From MPC 78590
P/2012 C3 (PANSTARRS),e,9.0920,135.3677,344.9542,9.748681,0.0323806,0.63011148,359.9758,10/06.0/2011,2000,g 13.0,4.0
# From MPC 84931
P/2012 F2 (PANSTARRS),e,14.7247,227.0566,33.2569,6.328702,0.0619059,0.54272926,171.4647,11/12.0/2020,2000,g 12.0,4.0
# From MPEC 2020-UR0
C/2012 F3 (PANSTARRS),h,04/07.4701/2015,11.3285,164.5100,104.3561,1.004655,3.471604,2000,6.5,4.0
# From MPEC 2020-SI8
C/2012 F3 (PANSTARRS),h,04/07.4701/2015,11.3285,164.5100,104.3561,1.004655,3.471604,2000,6.5,4.0
# From MPC 79344
P/2012 G1 (PANSTARRS),e,11.6925,282.5440,286.1149,4.172871,0.1156250,0.38072240,359.9500,06/01.0/2012,2000,g 15.0,4.0
# From MPC 80898
P/2012 K3 (Gibbs),e,13.1946,125.8089,172.1493,3.624763,0.1428186,0.42346216,64.6257,11/12.0/2020,2000,g 15.0,4.0
# From MPC 88326
P/2012 NJ (La Sagra),e,84.6570,315.5487,338.3292,8.459079,0.0400608,0.84736000,123.1440,11/12.0/2020,2000,g 14.5,4.0
# From MPC 81470
P/2012 O1 (McNaught),e,7.4326,91.9826,238.2198,3.540189,0.1479669,0.59454257,91.8223,11/12.0/2020,2000,g 17.5,4.0
# From MPC 80899
P/2012 O2 (McNaught),e,24.4863,120.6789,183.4056,3.623039,0.1429205,0.53279967,79.4466,11/12.0/2020,2000,g 17.0,4.0
# From MPC 82720
P/2012 O3 (McNaught),e,16.6145,336.4097,344.7090,4.574824,0.1007262,0.64694215,303.2141,11/12.0/2020,2000,g 16.5,4.0
# From MPC 82720
P/2012 S2 (La Sagra),e,8.6871,51.1926,312.5009,4.411229,0.1063811,0.69119265,322.3629,11/12.0/2020,2000,g 17.0,4.0
# From MPEC 2020-SI8
P/2012 SB6 (Lemmon),e,10.9285,8.2099,14.4047,3.826190,0.1316905,0.40490349,19.1880,11/12.0/2020,2000,g 14.0,4.0
# From MPC 82320
P/2012 T2 (PANSTARRS),e,12.5564,73.7289,310.4323,5.737402,0.0717185,0.16080481,198.1852,11/12.0/2020,2000,g 10.0,4.0
# From MPC 80900
P/2012 T3 (PANSTARRS),e,9.5684,114.4073,195.4462,6.152378,0.0645862,0.61720738,201.2792,11/12.0/2020,2000,g 15.0,4.0
# From MPC 87914
P/2012 TK8 (Tenagra),e,6.3404,288.9685,127.9369,4.128437,0.1174967,0.27428900,319.1408,11/12.0/2020,2000,g 13.0,4.0
# From MPC 82720
P/2012 U2 (PANSTARRS),e,10.7498,185.2768,228.3136,7.142293,0.0516354,0.49787972,151.0808,11/12.0/2020,2000,g 12.5,4.0
# From MPC 84024
P/2012 US27 (Siding Spring),e,39.3316,49.1721,0.8171,5.166291,0.0839336,0.64743102,239.0991,11/12.0/2020,2000,g 13.5,4.0
# From MPC 82721
P/2012 WA34 (Lemmon-PANSTARRS),e,6.1128,94.4230,353.2958,4.759516,0.0949205,0.34334859,268.8022,11/12.0/2020,2000,g 13.5,4.0
# From MPC 84024
P/2013 A2 (Scotti),e,3.3613,355.8128,134.5382,4.014018,0.1225562,0.45442146,348.2619,11/12.0/2020,2000,g 15.5,4.0
# From MPC 82721
P/2013 AL76 (Catalina),e,144.8188,145.9608,27.1194,6.497810,0.0595050,0.68607638,172.1909,11/12.0/2020,2000,g 16.0,4.0
# From MPC 88695
P/2013 EW90 (Tenagra),e,31.7884,160.2952,346.3352,4.116505,0.1180079,0.19493373,348.7067,11/12.0/2020,2000,g 12.0,4.0
# From MPC 91612
P/2013 G1 (Kowalski),e,5.4676,221.4053,51.3854,6.887509,0.0545269,0.51315266,137.7067,11/12.0/2020,2000,g 11.0,4.0
# From MPC 84025
P/2013 G4 (PANSTARRS),e,5.9162,339.6433,214.7080,4.439454,0.1053682,0.40961809,298.4121,11/12.0/2020,2000,g 15.0,4.0
# From MPC 91613
P/2013 J2 (McNaught),e,15.5345,289.4260,37.7285,6.223370,0.0634842,0.65749312,167.1997,11/12.0/2020,2000,g 13.0,4.0
# From MPEC 2020-V68
P/2013 J4 (PANSTARRS-Fuls),e,4.8959,80.8363,92.3818,3.454844,0.1534834,0.38485440,43.7539,11/12.0/2020,2000,g 14.0,4.0
# From MPC 86229
P/2013 N3 (PANSTARRS),e,2.1731,17.4936,323.8544,7.390958,0.0490516,0.59306090,120.7684,11/12.0/2020,2000,g 13.0,4.0
# From MPC 85834
P/2013 N5 (PANSTARRS),e,23.4202,187.1671,176.8857,6.799462,0.0555894,0.73179613,149.5343,11/12.0/2020,2000,g 17.0,4.0
# From MPC 85834
P/2013 P1 (PANSTARRS),e,18.7203,160.6200,138.0947,8.568382,0.0392967,0.60608796,110.5090,11/12.0/2020,2000,g 12.0,4.0
# From MPEC 2020-SI8
P/2013 PA104 (PANSTARRS),e,10.9293,176.3984,238.7807,3.558776,0.1468091,0.40896572,346.7748,11/12.0/2020,2000,g  9.0,4.0
# From MPC 94671
P/2013 R3 (Catalina-PANSTARRS),e,0.8654,342.0010,11.1585,3.033998,0.1865010,0.27505515,131.7191,11/12.0/2020,2000,g 14.0,4.0
# From unp
P/2013 R3-A (Catalina-PANSTARRS),e,0.8647,341.9679,11.1975,3.033857,0.1865140,0.27502456,131.7512,11/12.0/2020,2000,g  9.0,4.0
# From MPEC 2015-M77
P/2013 R3-B (Catalina-PANSTARRS),e,0.8660,342.0237,11.1324,3.034075,0.1864939,0.27507021,131.7019,11/12.0/2020,2000,g  9.0,4.0
# From MPC 85835
P/2013 T1 (PANSTARRS),e,24.2741,10.0890,346.0784,5.861578,0.0694516,0.62357613,184.7250,11/12.0/2020,2000,g 16.5,4.0
# From MPC 86643
P/2013 T2 (Schwartz),e,9.4559,0.8172,345.4814,3.489333,0.1512135,0.50116933,52.5328,11/12.0/2020,2000,g 16.0,4.0
# From MPEC 2020-UR0
P/2013 TL117 (Lemmon),e,9.3648,3.3145,112.2472,3.610370,0.1436735,0.68925418,353.9199,11/12.0/2020,2000,g 17.5,4.0
# From MPC110080
C/2013 US10 (Catalina),h,11/16.8730/2015,148.7621,186.4131,340.5920,1.000621,0.820492,2000,4.4,4.0
# From MPC 91613
P/2013 W1 (PANSTARRS),e,4.6954,117.8477,1.2942,3.491142,0.1510959,0.59285961,9.4723,11/12.0/2020,2000,g 17.5,4.0
# From MPC111767
C/2013 X1 (PANSTARRS),h,04/19.4583/2016,163.1940,131.5725,165.1672,1.000443,1.323182,2000,10.5,2.0
# From MPC101095
P/2013 YG46 (Spacewatch),e,7.8558,48.8674,242.4956,3.276416,0.1661902,0.45490437,229.5404,11/12.0/2020,2000,g 10.0,4.0
# From MPC 89728
P/2014 A2 (Hill),e,24.5428,106.6289,356.2431,5.926121,0.0683201,0.64550734,176.5546,11/12.0/2020,2000,g 15.0,4.0
# From MPC 92981
P/2014 A3 (PANSTARRS),e,13.6812,230.1948,212.8740,4.630375,0.0989190,0.24682050,272.3402,11/12.0/2020,2000,g 12.0,4.0
# From MPC119994
C/2014 B1 (Schwartz),e,28.4054,161.4121,345.7836,10382,0.0000009,0.99907970,0.0000,09/09.0047/2017,2000,g  4.0,4.0
# From MPC102095
P/2014 C1 (TOTAS),e,2.6854,167.7650,24.0577,3.040826,0.1858732,0.44758470,107.5500,11/12.0/2020,2000,g 15.5,4.0
# From MPC 91614
P/2014 E1 (Larson),e,15.9764,39.0295,186.0240,3.711848,0.1378221,0.42348794,325.5143,11/12.0/2020,2000,g 14.0,4.0
# From MPC 94280
C/2014 F3 (Sheppard-Trujillo),e,6.5802,326.7670,3.0758,15.88472,0.0155681,0.64166466,357.1483,11/12.0/2020,2000,g  6.0,4.0
# From MPC 98560
P/2014 L2 (NEOWISE),e,5.1974,149.3496,182.6429,6.303739,0.0622740,0.64808411,143.7439,11/12.0/2020,2000,g 12.0,4.0
# From MPC 90769
P/2014 L3 (Hill),e,6.2777,115.4701,178.6347,8.167017,0.0422288,0.77388795,98.2052,11/12.0/2020,2000,g 16.0,4.0
# From MPC 91614
P/2014 M4 (PANSTARRS),e,3.3353,263.2711,147.9556,5.875109,0.0692118,0.59390139,148.7490,11/12.0/2020,2000,g 15.0,4.0
# From MPC103844
P/2014 MG4 (Spacewatch-PANSTARRS),e,9.3713,311.7342,299.0914,5.011910,0.0878414,0.25977187,237.4971,11/12.0/2020,2000,g  9.5,4.0
# From MPC 98560
P/2014 O3 (PANSTARRS),e,7.8074,87.6424,204.5759,7.562591,0.0473913,0.38623609,113.6079,11/12.0/2020,2000,g 10.5,4.0
# From MPEC 2020-AA5
C/2014 OE4 (PANSTARRS),h,12/12.8012/2016,81.3196,240.4115,65.8785,1.002978,6.248756,2000,11.0,2.0
# From MPEC 2020-UO1
